[{"OBJECT_NAME":"STARLINK-33664","OBJECT_ID":"2025-065S","EPOCH":"2026-03-09T10:49:57.752832","MEAN_MOTION":15.27599527,"ECCENTRICITY":0.0001023,"INCLINATION":42.9974,"RA_OF_ASC_NODE":108.363,"ARG_OF_PERICENTER":280.119,"MEAN_ANOMALY":79.9546,"EPHEMERIS_TYPE":0,"CLASSIFICATION_TYPE":"U","NORAD_CAT_ID":63415,"ELEMENT_SET_NO":999,"REV_AT_EPOCH":5280,"BSTAR":0.0011016914,"MEAN_MOTION_DOT":0.00030196,"MEAN_MOTION_DDOT":0},{"OBJECT_NAME":"ELECTRON KICK STAGE R\/B","OBJECT_ID":"2024-114G","EPOCH":"2026-03-09T16:42:35.427168","MEAN_MOTION":15.12630878,"ECCENTRICITY":0.00674954,"INCLINATION":97.9507,"RA_OF_ASC_NODE":118.387,"ARG_OF_PERICENTER":79.3604,"MEAN_ANOMALY":281.5218,"EPHEMERIS_TYPE":0,"CLASSIFICATION_TYPE":"U","NORAD_CAT_ID":60085,"ELEMENT_SET_NO":999,"REV_AT_EPOCH":9434,"BSTAR":0.00053349816,"MEAN_MOTION_DOT":9.787e-5,"MEAN_MOTION_DDOT":0}]
